[{"OBJECT_NAME":"TRANSPORTER-15 OBJECT K","OBJECT_ID":"2025-276K","EPOCH":"2026-03-09T18:17:24.455904","MEAN_MOTION":15.1897842,"ECCENTRICITY":0.00057003,"INCLINATION":97.4243,"RA_OF_ASC_NODE":143.9558,"ARG_OF_PERICENTER":6.9635,"MEAN_ANOMALY":353.1678,"EPHEMERIS_TYPE":0,"CLASSIFICATION_TYPE":"U","NORAD_CAT_ID":66675,"ELEMENT_SET_NO":999,"REV_AT_EPOCH":1532,"BSTAR":0.00057838565,"MEAN_MOTION_DOT":0.00012043,"MEAN_MOTION_DDOT":0},{"OBJECT_NAME":"IRIDE FM4","OBJECT_ID":"2025-276AJ","EPOCH":"2026-03-09T18:15:25.902144","MEAN_MOTION":15.18565498,"ECCENTRICITY":0.00038717,"INCLINATION":97.4251,"RA_OF_ASC_NODE":143.9634,"ARG_OF_PERICENTER":14.8227,"MEAN_ANOMALY":345.312,"EPHEMERIS_TYPE":0,"CLASSIFICATION_TYPE":"U","NORAD_CAT_ID":66698,"ELEMENT_SET_NO":999,"REV_AT_EPOCH":1532,"BSTAR":0.00040962918,"MEAN_MOTION_DOT":8.403e-5,"MEAN_MOTION_DDOT":0}]
